GLOBALSTAR M001         
1 25162U 98008A   25072.96478505 -.00000030  00000+0  50890-3 0  9999
2 25162  52.0014 250.3777 0002271  68.7528  98.0799 12.38209748231911
GLOBALSTAR M004         
1 25163U 98008B   25072.90422060 -.00000053  00000+0  28291-3 0  9994
2 25163  52.0028 344.8373 0003706  78.0396 358.4823 12.63389951249642
GLOBALSTAR M002         
1 25164U 98008C   25072.55549527 -.00000096  00000+0 -38215-3 0  9999
2 25164  51.9997 119.9841 0000953 332.7539  27.3231 11.61507937173023
GLOBALSTAR M003         
1 25165U 98008D   25072.94449037 -.00000040  00000+0  52337-3 0  9997
2 25165  51.9997  72.2979 0008285 101.4525 274.6263 12.12074586221672
GLOBALSTAR M014         
1 25306U 98023A   25072.69489767 -.00000074  00000+0  63373-4 0  9997
2 25306  51.9855  44.8645 0000906 168.2711   4.3669 11.65478704180036
GLOBALSTAR M006         
1 25307U 98023B   25072.78794184 -.00000055  00000+0  42955-3 0  9991
2 25307  51.9923  93.5379 0003155 289.5767 241.2236 11.58172729205776
GLOBALSTAR M015         
1 25308U 98023C   25072.80400535 -.00000080  00000+0 -15687-3 0  9990
2 25308  51.9807 187.5987 0011947 264.1347 261.9506 11.48858872183119
GLOBALSTAR M008         
1 25309U 98023D   25072.67390527 -.00000100  00000+0 -28512-4 0  9990
2 25309  51.9959 114.9713 0002257 339.1364 173.8661 12.36064243226036
